{
    "links": {
        "self": "http://www.neowsapp.com/rest/v1/neo/3070749?api_key=iIulBulltgU6a56xZRHN4H3l9WmuAYTsLGpBGhQ2"
    },
    "id": "3070749",
    "neo_reference_id": "3070749",
    "name": "(2001 DZ76)",
    "designation": "2001 DZ76",
    "nasa_jpl_url": "http://ssd.jpl.nasa.gov/sbdb.cgi?sstr=3070749",
    "absolute_magnitude_h": 25.3,
    "estimated_diameter": {
        "kilometers": {
            "estimated_diameter_min": 0.0231502122,
            "estimated_diameter_max": 0.0517654482
        },
        "meters": {
            "estimated_diameter_min": 23.150212221,
            "estimated_diameter_max": 51.7654482198
        },
        "miles": {
            "estimated_diameter_min": 0.0143848705,
            "estimated_diameter_max": 0.0321655483
        },
        "feet": {
            "estimated_diameter_min": 75.9521422633,
            "estimated_diameter_max": 169.8341531374
        }
    },
    "is_potentially_hazardous_asteroid": false,
    "close_approach_data": [
        {
            "close_approach_date": "2001-02-23",
            "close_approach_date_full": "2001-Feb-23 01:27",
            "epoch_date_close_approach": 982891620000,
            "relative_velocity": {
                "kilometers_per_second": "11.6958065572",
                "kilometers_per_hour": "42104.9036057447",
                "miles_per_hour": "26162.3496876917"
            },
            "miss_distance": {
                "astronomical": "0.0059600054",
                "lunar": "2.3184421006",
                "kilometers": "891604.113028498",
                "miles": "554017.1057213524"
            },
            "orbiting_body": "Earth"
        },
        {
            "close_approach_date": "2001-02-23",
            "close_approach_date_full": "2001-Feb-23 07:44",
            "epoch_date_close_approach": 982914240000,
            "relative_velocity": {
                "kilometers_per_second": "12.2760738458",
                "kilometers_per_hour": "44193.8658447389",
                "miles_per_hour": "27460.3495855823"
            },
            "miss_distance": {
                "astronomical": "0.0076422516",
                "lunar": "2.9728358724",
                "kilometers": "1143264.561364092",
                "miles": "710391.6571327896"
            },
            "orbiting_body": "Moon"
        },
        {
            "close_approach_date": "2178-06-01",
            "close_approach_date_full": "2178-Jun-01 10:22",
            "epoch_date_close_approach": 6576978120000,
            "relative_velocity": {
                "kilometers_per_second": "15.5609538464",
                "kilometers_per_hour": "56019.4338471682",
                "miles_per_hour": "34808.2976590918"
            },
            "miss_distance": {
                "astronomical": "0.1590560393",
                "lunar": "61.8727992877",
                "kilometers": "23794444.689916291",
                "miles": "14785182.3322991758"
            },
            "orbiting_body": "Earth"
        }
    ],
    "orbital_data": {
        "orbit_id": "11",
        "orbit_determination_date": "2017-04-06 09:16:30",
        "first_observation_date": "2001-02-20",
        "last_observation_date": "2001-02-23",
        "data_arc_in_days": 3,
        "observations_used": 42,
        "orbit_uncertainty": "8",
        "minimum_orbit_intersection": ".00522498",
        "jupiter_tisserand_invariant": "3.251",
        "epoch_osculation": "2451962.5",
        "eccentricity": ".6119836143084578",
        "semi_major_axis": "2.379826546998687",
        "inclination": "5.8350356329362",
        "ascending_node_longitude": "152.2064476298649",
        "orbital_period": "1340.961731331847",
        "perihelion_distance": ".9234116953392135",
        "perihelion_argument": "37.77649500746365",
        "aphelion_distance": "3.83624139865816",
        "perihelion_time": "2451989.887310222879",
        "mean_anomaly": "352.6474921320506",
        "mean_motion": ".2684640371074923",
        "equinox": "J2000",
        "orbit_class": {
            "orbit_class_type": "APO",
            "orbit_class_description": "Near-Earth asteroid orbits which cross the Earth’s orbit similar to that of 1862 Apollo",
            "orbit_class_range": "a (semi-major axis) > 1.0 AU; q (perihelion) < 1.017 AU"
        }
    },
    "is_sentry_object": false
}